Store Name,Phone Number,Address,Store Url,Latitude,Longitude,City
Apache Junction,(480) 983-9915,"3003 W. Apache Trail
Apache Junction, AZ 85120",https://locations.99only.com/az/apachejunction/discount-store-219.html,-111.5782244,33.413779,Apache Junction
Bullhead City - Hwy 46,(928) 704-0099,"3699 Highway 95
Bullhead City, AZ 86442",https://locations.99only.com/az/bullheadcity/discount-store-430.html,-114.5918998,35.0528237,Bullhead City
Casa Grande,(520) 876-9281,"1683 E. Florence Blvd
Casa Grande, AZ 85122",https://locations.99only.com/az/casagrande/discount-store-387.html,-111.7153996,32.8782385,Casa Grande
Chandler,(480) 899-8399,"1996 N. Alma School Rd
Chandler, AZ 85224",https://locations.99only.com/az/chandler/discount-store-167.html,-111.8608643,33.334679,Chandler
Douglas - 5th St,(520) 364-6454,"204 5th St
Suite D
Douglas, AZ 85607",https://locations.99only.com/az/douglas/discount-store-449.html,-109.5587434,31.3390485,Douglas
Gilbert,(480) 545-7999,"750 N. Gilbert Rd
Gilbert, AZ 85233",https://locations.99only.com/az/gilbert/discount-store-306.html,-111.7925806,33.3636775,Gilbert
Phoenix - 43rd Avenue,(602) 942-0598,"4240 W. Bell Rd
Glendale, AZ 85308",https://locations.99only.com/az/glendale/discount-store-322.html,-112.1505305,33.6408339,
Glendale - 67th Avenue,(623) 572-5299,"20165 N. 67th Ave
Glendale, AZ 85308",https://locations.99only.com/az/glendale/discount-store-207.html,-112.2016522,33.6649594,
Glendale (AZ),(623) 930-1112,"5340 W. Glendale Ave
Glendale, AZ 85301",https://locations.99only.com/az/glendale/discount-store-178.html,-112.1741811,33.5393014,
Goodyear,(623) 882-3399,"13540 W. Van Buren St
Goodyear, AZ 85338",https://locations.99only.com/az/goodyear/discount-store-231.html,-112.3508209,33.450992,
Kingman,(928) 718-7199,"3140 Stockton Hill Rd.
Kingman, AZ 86401",https://locations.99only.com/az/kingman/discount-store-368.html,-114.0340271,35.2152166,
Lake Havasu City,(928) 505-3099,"1795 Kiowa Blvd
Lake Havasu, AZ 86403",https://locations.99only.com/az/lakehavasu/discount-store-314.html,-114.3515065,34.5033378,Lake Havasu
Laveen,(602) 237-7855,"3610 W. Baseline Rd
Laveen, AZ 85339",https://locations.99only.com/az/laveen/discount-store-373.html,-112.136408,33.3791032,Laveen
Maricopa,(520) 568-0079,"44515 W. Edison Rd
Maricopa, AZ 85138",https://locations.99only.com/az/maricopa/discount-store-367.html,-112.0464261,33.064366,Maricopa
Mesa - Gilbert,(480) 632-5733,"1045 S. Gilbert Rd
Mesa, AZ 85204",https://locations.99only.com/az/mesa/discount-store-426.html,-111.786898,33.3960107,Mesa
Mesa - Stapley,(480) 964-1494,"2009 N Stapley Dr
Mesa, AZ 85203",https://locations.99only.com/az/mesa/discount-store-419.html,-111.8038526,33.4521072,Mesa
Mesa - Power,(480) 985-1199,"2070 S. Power Rd
Mesa, AZ 85208",https://locations.99only.com/az/mesa/discount-store-324.html,-111.6879976,33.3782064,Mesa
Mesa - Main,(480) 396-2499,"4433 E. Main St
Mesa, AZ 85205",https://locations.99only.com/az/mesa/discount-store-163.html,-111.7351861,33.4141798,Mesa
Mesa - Country Club,(480) 827-0909,"1120 S. Country Club Dr
Mesa, AZ 85210",https://locations.99only.com/az/mesa/discount-store-145.html,-111.8418819,33.3949085,Mesa
Peoria,(623) 979-0599,"8375 W. Thunderbird Rd
Peoria, AZ 85381",https://locations.99only.com/az/peoria/discount-store-220.html,-112.23924,33.6085347,Peoria
Phoenix - Central Avenue,(602) 276-6993,"6018 S. Central Ave
Phoenix, AZ 85042",https://locations.99only.com/az/phoenix/discount-store-282.html,-112.0747811,33.3916291,Phoenix
Phoenix - 51st Avenue,(623) 846-9919,"5010 W. Indian School Rd
Phoenix, AZ 85031",https://locations.99only.com/az/phoenix/discount-store-225.html,-112.1665875,33.4963304,Phoenix
Phoenix - 12th Street,(602) 997-5999,"7830 N. 12th St
Phoenix, AZ 85020",https://locations.99only.com/az/phoenix/discount-store-223.html,-112.0583493,33.5520185,Phoenix
Phoenix - Tatum,(602) 953-0999,"12805 N. Tatum Blvd
Phoenix, AZ 85032",https://locations.99only.com/az/phoenix/discount-store-203.html,-111.9765435,33.6021495,Phoenix
Phoenix - Thomas,(623) 691-9992,"7620 W. Thomas Rd
Phoenix, AZ 85033",https://locations.99only.com/az/phoenix/discount-store-182.html,-112.2217582,33.4816262,Phoenix
Phoenix - Bell,(602) 996-7999,"2315 E. Bell Rd
Phoenix, AZ 85022",https://locations.99only.com/az/phoenix/discount-store-166.html,-112.0322671,33.6390459,Phoenix
Phoenix - Peoria,(602) 863-9929,"3518 W. Peoria Ave
Phoenix, AZ 85029",https://locations.99only.com/az/phoenix/discount-store-131.html,-112.1354766,33.5833307,Phoenix
Phoenix - Indian School,(602) 279-3499,"1240 Indian School Rd
Phoenix, AZ 85014",https://locations.99only.com/az/phoenix/discount-store-116.html,-112.0549959,33.4950599,Phoenix
Sahuarita,(520) 648-0276,"750 W. Calle Arroyo Sur
Sahuarita, AZ 85614",https://locations.99only.com/az/sahuarita/discount-store-243.html,-110.9811204,31.913204,Sahuarita
Scottsdale - Indian Bend,(480) 362-9293,"8950 E. Talking Stick Way
Scottsdale, AZ 85250",https://locations.99only.com/az/scottsdale/discount-store-388.html,-111.8892201,33.5403989,Scottsdale
Scottsdale - Thomas,(480) 946-7999,"7919 E. Thomas Rd.
Scottsdale, AZ 85251",https://locations.99only.com/az/scottsdale/discount-store-164.html,-111.9096963,33.478899,Scottsdale
Surprise,(623) 974-5929,"12801 W. Bell Rd
Surprise, AZ 85374",https://locations.99only.com/az/surprise/discount-store-161.html,-112.3370272,33.6371458,Surprise
Tempe - Southern,(480) 894-5220,"790 E. Southern Ave
Tempe, AZ 85282",https://locations.99only.com/az/tempe/discount-store-133.html,-111.9286812,33.393727,Tempe
Tucson - Oracle,(520) 887-3509,"4144 N. Oracle Rd
Tucson, AZ 85705",https://locations.99only.com/az/tucson/discount-store-312.html,-110.977177,32.282403,Tucson
Tucson - Marana,(520) 579-1699,"4160 W. Ina Rd
Tucson, AZ 85741",https://locations.99only.com/az/tucson/discount-store-222.html,-111.0544265,32.3385163,Tucson
Tucson - Golf Links,(520) 296-8999,"7125 E. Golf Links Rd
Tucson, AZ 85730",https://locations.99only.com/az/tucson/discount-store-206.html,-110.8395525,32.1933855,Tucson
Tucson - Valencia,(520) 889-7999,"1675 W. Valencia Blvd
Tucson, AZ 85746",https://locations.99only.com/az/tucson/discount-store-205.html,-111.0006801,32.1322397,Tucson
Yuma - Fortuna,(928) 305-9999,"11274 S Fortuna Rd
Yuma, AZ 85367",https://locations.99only.com/az/yuma/discount-store-366.html,-114.4451353,32.6679493,Yuma
Yuma - 4th Avenue,(928) 376-0999,"1701 S. 4th Ave
Yuma, AZ 85364",https://locations.99only.com/az/yuma/discount-store-242.html,-114.6235581,32.696118,Yuma