Store Name,Phone Number,Address,Store Url,Longitude,Latitude,City
Alhambra,(626) 281-9990,"2810 W. Alhambra Rd
Alhambra, CA 91801",https://locations.99only.com/ca/alhambra/discount-store-184.html,-118.1545993,34.0978818,Alhambra
Anaheim - Euclid,(714) 999-8653,"910 S. Euclid St
Anaheim, CA 92802",https://locations.99only.com/ca/anaheim/discount-store-414.html,-117.9406554,33.819685,Anaheim
Anaheim - State College,(714) 491-8999,"2270 E. Lincoln Ave
Anaheim, CA 92806",https://locations.99only.com/ca/anaheim/discount-store-100.html,-117.8848486,33.8378922,Anaheim
Antioch,(925) 757-8999,"2515 Somersville Rd
Antioch, CA 94509",https://locations.99only.com/ca/antioch/discount-store-228.html,-121.8385581,38.0002186,Antioch
Apple Valley - Hwy 18,(760) 242-0488,"20220 Hwy 18
Apple Valley, CA 92307",https://locations.99only.com/ca/applevalley/discount-store-440.html,-117.2217714,34.5289301,Apple Valley
Apple Valley,(760) 961-1879,"19201 Bear Valley Rd
Apple Valley, CA 92308",https://locations.99only.com/ca/applevalley/discount-store-254.html,-117.2435468,34.4705034,Apple Valley
Arcadia,(626) 294-1999,"140 E. Duarte Rd
Arcadia, CA 91006",https://locations.99only.com/ca/arcadia/discount-store-69.html,-118.026568,34.1299324,Arcadia
Woodman,(818) 891-9991,"8625 Woodman Ave
Arleta, CA 91331",https://locations.99only.com/ca/arleta/discount-store-42.html,-118.4342909,34.2269624,Arleta
Artesia,(562) 865-0291,"11732 South St
Artesia, CA 90701",https://locations.99only.com/ca/artesia/discount-store-321.html,-118.0835475,33.8580158,Artesia
Atascadero,(805) 462-9990,"7101 El Camino Real
Atascadero, CA 93422",https://locations.99only.com/ca/atascadero/discount-store-353.html,-120.6629941,35.4865554,Atascadero
Atwater,(209) 358-7019,"1870 Bellevue Rd
Atwater, CA 95301",https://locations.99only.com/ca/atwater/discount-store-292.html,-120.6129345,37.3592954,Atwater
Azusa,(626) 633-0990,"307 N. Citrus Ave
Azusa, CA 91702",https://locations.99only.com/ca/azusa/discount-store-90.html,-117.8914864,34.126854,Azusa
Bakersfield - Niles,(661) 363-0006,"3815 Niles St
Bakersfield, CA 93306",https://locations.99only.com/ca/bakersfield/discount-store-438.html,-118.9413217,35.3754766,Bakersfield
Bakersfield - Centennial,(661) 829-2502,"8200 Centennial Plaza Way
Bakersfield, CA 93312",https://locations.99only.com/ca/bakersfield/discount-store-393.html,-119.0938989,35.4019233,Bakersfield
Bakersfield - Olive,(661) 399-9943,"1121 Olive Dr
Bakersfield, CA 93308",https://locations.99only.com/ca/bakersfield/discount-store-258.html,-119.0446289,35.4112479,Bakersfield
Bakersfield - White Lane,(661) 397-7999,"1501 White Ln
Bakersfield, CA 93307",https://locations.99only.com/ca/bakersfield/discount-store-146.html,-119.0195333,35.3163797,Bakersfield
Bakersfield - Mt. Vernon,(661) 872-9299,"2682 Mt. Vernon Ave
Bakersfield, CA 93306",https://locations.99only.com/ca/bakersfield/discount-store-129.html,-118.9690569,35.3962627,Bakersfield
Bakersfield - Ming,(661) 836-6699,"4200 Ming Ave
Bakersfield, CA 93309",https://locations.99only.com/ca/bakersfield/discount-store-128.html,-119.0499362,35.3401801,Bakersfield
Baldwin Park,(626) 962-4299,"14151 Ramona Blvd
Baldwin Park, CA 91706",https://locations.99only.com/ca/baldwinpark/discount-store-72.html,-117.9653546,34.0867895,Baldwin Park
Barstow,(760) 256-3190,"1308 E. Main St
Barstow, CA 92311",https://locations.99only.com/ca/barstow/discount-store-291.html,-117.0075921,34.8949085,Barstow
Bellflower,(562) 804-5199,"14317 Clark Ave
Bellflower, CA 90706",https://locations.99only.com/ca/bellflower/discount-store-152.html,-118.1352177,33.9032882,Bellflower
Brea - Imperial,(714) 529-4793,"820 East Imperial Hwy
Brea, CA 92821",https://locations.99only.com/ca/brea/discount-store-253.html,-117.8927565,33.9126688,Brea
Brea,(562) 690-3992,"1261 W. Central Ave
Brea, CA 92821",https://locations.99only.com/ca/brea/discount-store-221.html,-117.9171194,33.9326429,Brea
Burbank,(818) 841-1199,"2407 W. Victory Blvd
Burbank, CA 91506",https://locations.99only.com/ca/burbank/discount-store-111.html,-118.3375197,34.1848362,Burbank
Calexico,(760) 768-1308,"401 E. 2nd St
Calexico, CA 92231",https://locations.99only.com/ca/calexico/discount-store-238.html,-115.4932524,32.6669291,Calexico
Camarillo,(805) 383-9671,"301 Arneil Rd
Camarillo, CA 93010",https://locations.99only.com/ca/camarillo/discount-store-113.html,-119.0408558,34.2197879,Camarillo
Canoga Park - DeSoto,(818) 593-6528,"6820 De Soto Ave
Canoga Park, CA 91303",https://locations.99only.com/ca/canogapark/discount-store-400.html,-118.5872752,34.1946272,Canoga Park
Carson,(310) 532-0423,"619 E. University Dr
Carson, CA 90746",https://locations.99only.com/ca/carson/discount-store-378.html,-118.2651789,33.859165,Carson
Cathedral City,(760) 202-9991,"31033 Date Palm Dr
Cathedral City, CA 92234",https://locations.99only.com/ca/cathedralcity/discount-store-262.html,-116.4594062,33.8225055,Cathedral City
Chico - Pillsbury,(530) 895-1398,"2156 Pillsbury Rd
Chico, CA 95926",https://locations.99only.com/ca/chico/discount-store-407.html,-121.8458531,39.7583904,Chico
Chino,(909) 364-1899,"12170 Central Avenue
Chino, CA 91762",https://locations.99only.com/ca/chino/discount-store-149.html,-117.6912075,34.0321859,Chino
Chino Hills,(909) 393-7720,"4050 Chino Hills Pkwy
Chino, CA 91710",https://locations.99only.com/ca/chino/discount-store-96.html,-117.7161695,33.9838544,Chino
Chula Vista - 3rd Ave,(619) 691-1036,"1030 3rd Ave
Chula Vista, CA 91911",https://locations.99only.com/ca/chulavista/discount-store-443.html,-117.0715014,32.6154852,Chula Vista
Citrus Heights,(916) 727-1999,"7424 Greenback Ln
Citrus Heights, CA 95610",https://locations.99only.com/ca/citrusheights/discount-store-416.html,-121.2911319,38.6775318,Citrus Heights
Clovis,(559) 299-8149,"770 W. Shaw Ave
Clovis, CA 93612",https://locations.99only.com/ca/clovis/discount-store-138.html,-119.7256821,36.8069864,Clovis
Coachella,(760) 398-9015,"50249 Harrison St. #J
Coachella, CA 92236",https://locations.99only.com/ca/coachella/discount-store-261.html,-116.1822982,33.6825035,Coachella
Colton - La Cadena,(909) 370-2299,"1481 N. La Cadena Dr
Colton, CA 92324",https://locations.99only.com/ca/colton/discount-store-345.html,-117.3153239,34.0846836,Colton
Colton,(909) 433-0740,"1080 S. Mount Vernon Ave
Colton, CA 92324",https://locations.99only.com/ca/colton/discount-store-240.html,-117.3067374,34.0514468,Colton
Concord - Willow Pass,(925) 687-2996,"1701 A Willow Pass Rd
Concord, CA 94520",https://locations.99only.com/ca/concord/discount-store-247.html,-122.0413494,37.9742306,Concord
Concord,(925) 674-9799,"4665 Clayton Rd
Concord, CA 94521",https://locations.99only.com/ca/concord/discount-store-201.html,-121.9835335,37.9624119,Concord
Corona - McKinley,(951) 279-9990,"450 N McKinley
Corona, CA 92879",https://locations.99only.com/ca/corona/discount-store-380.html,-117.5227083,33.8881755,Corona
Costa Mesa,(949) 645-9066,"2180 Harbor Blvd
Costa Mesa, CA 92627",https://locations.99only.com/ca/costamesa/discount-store-174.html,-117.9188358,33.6538034,Costa Mesa
Covina - Azusa Avenue,(626) 339-9999,"543 N. Azusa Ave
Covina, CA 91722",https://locations.99only.com/ca/covina/discount-store-340.html,-117.9089722,34.0897646,Covina
Cypress - Walker,(714) 816-9931,"9937 Walker St
Cypress, CA 90630",https://locations.99only.com/ca/cypress/discount-store-418.html,-118.0380947,33.8180747,Cypress
Delano,(661) 721-9690,"626 Cecil Ave
Delano, CA 93215",https://locations.99only.com/ca/delano/discount-store-332.html,-119.250747,35.775536,Delano
Downey,(562) 923-9882,"11916 Paramount Blvd
Downey, CA 90241",https://locations.99only.com/ca/downey/discount-store-67.html,-118.1438117,33.9340483,Downey
Duarte,(626) 599-2028,"1327 E. Huntington Dr
Duarte, CA 91010",https://locations.99only.com/ca/duarte/discount-store-336.html,-117.9758786,34.1405291,Duarte
Eastvale,(951) 371-2003,"7115 Hamner Ave
Eastvale, CA 91752",https://locations.99only.com/ca/eastvale/discount-store-379.html,-117.5588483,33.9573739,Eastvale
El Cajon - Fletcher,(619) 462-2215,"2320 Fletcher Pkwy
El Cajon, CA 92020",https://locations.99only.com/ca/elcajon/discount-store-293.html,-116.9960035,32.8032086,El Cajon
El Cajon,(619) 590-9191,"1766 E. Main St
El Cajon, CA 92021",https://locations.99only.com/ca/elcajon/discount-store-80.html,-116.9183625,32.814494,El Cajon
El Centro - Danenberg,(760) 370-0399,"524 E. Danenberg Dr
El Centro, CA 92243",https://locations.99only.com/ca/elcentro/discount-store-395.html,-115.518951,32.7669565,El Centro
El Centro,(760) 352-6199,"2101 Imperial Blvd
El Centro, CA 92243",https://locations.99only.com/ca/elcentro/discount-store-267.html,-115.567322,32.8131016,El Centro
El Monte,(626) 279-7999,"11114 Ramona Blvd
El Monte, CA 91731",https://locations.99only.com/ca/elmonte/discount-store-52.html,-118.0309592,34.0726051,El Monte
El Segundo,(310) 335-6093,"300 Richmond St
El Segundo, CA 90245",https://locations.99only.com/ca/elsegundo/discount-store-377.html,-118.4169601,33.919876,El Segundo
Escondido - Ash,(760) 745-0457,"415 North Ash St
Escondido, CA 92027",https://locations.99only.com/ca/escondido/discount-store-417.html,-117.0682834,33.1306917,Escondido
Escondido - Parkway,(760) 745-0318,"385 N. Escondido Blvd
Escondido, CA 92025",https://locations.99only.com/ca/escondido/discount-store-408.html,-117.0873532,33.1221254,Escondido
Escondido - Valley,(760) 746-1849,"2010 E. Valley Pkwy
Escondido, CA 92027",https://locations.99only.com/ca/escondido/discount-store-357.html,-117.051733,33.1386301,Escondido
Fairfield - N. Texas,(707) 399-9930,"2525 N. Texas Street Ste B
Fairfield, CA 94533",https://locations.99only.com/ca/fairfield/discount-store-436.html,-122.0359767,38.2752533,Fairfield
Folsom - Riley,(916) 986-9102,"1012 Riley St
Folsom, CA 95630",https://locations.99only.com/ca/folsom/discount-store-409.html,-121.168512,38.6705358,Folsom
Fontana,(909) 349-0099,"9255 Sierra Ave
Fontana, CA 92335",https://locations.99only.com/ca/fontana/discount-store-89.html,-117.4351739,34.086327,Fontana
Foothill Ranch,(949) 837-1478,"26542 Towne Centre Dr
Foothill Ranch, CA 92610",https://locations.99only.com/ca/foothillranch/discount-store-327.html,-117.6679603,33.6793335,Foothill Ranch
Fremont,(510) 353-9512,"41989 Fremont Blvd
Fremont, CA 94538",https://locations.99only.com/ca/fremont/discount-store-320.html,-121.9584204,37.5243848,Fremont
Fresno - West Shaw,(559) 277-2549,"4170 West Shaw Ave
Fresno, CA 93722",https://locations.99only.com/ca/fresno/discount-store-328.html,-119.8666043,36.809113,Fresno
Fresno - West Avenue,(559) 225-0999,"3110 N. West Ave
Fresno, CA 93705",https://locations.99only.com/ca/fresno/discount-store-271.html,-119.8257353,36.7786092,Fresno
Fresno - McKinley,(559) 268-1989,"1520 N. First St
Fresno, CA 93703",https://locations.99only.com/ca/fresno/discount-store-235.html,-119.7716468,36.7636663,Fresno
Fresno - Kings Canyon,(559) 456-0990,"4979 Kings Canyon Blvd
Fresno, CA 93727",https://locations.99only.com/ca/fresno/discount-store-204.html,-119.7287478,36.7375294,Fresno
Fresno,(559) 438-8599,"6036 N. First St
Fresno, CA 93710",https://locations.99only.com/ca/fresno/discount-store-154.html,-119.7703802,36.8237524,Fresno
Fullerton - Chapman,(714) 525-9992,"2450 E. Chapman Ave
Fullerton, CA 92831",https://locations.99only.com/ca/fullerton/discount-store-187.html,-117.8878242,33.8731389,Fullerton
Fullerton,(714) 449-9969,"1845 N. Orangethorpe Ave
Fullerton, CA 92833",https://locations.99only.com/ca/fullerton/discount-store-53.html,-117.961748,33.859812,Fullerton
Garden Grove - Magnolia,(714) 636-3066,"11072 Magnolia St.
Garden Grove, CA 92841",https://locations.99only.com/ca/gardengrove/discount-store-372.html,-117.9742314,33.8021122,Garden Grove
Garden Grove - Valley View,(714) 890-5990,"12431 Valley View St
Garden Grove, CA 92845",https://locations.99only.com/ca/gardengrove/discount-store-141.html,-118.0309592,33.7817379,Garden Grove
Garden Grove - Westminster,(714) 539-5999,"9920 Westminster Ave
Garden Grove, CA 92844",https://locations.99only.com/ca/gardengrove/discount-store-43.html,-117.9557452,33.7583988,Garden Grove
Garden Grove,(714) 537-9900,"13061 Harbor Blvd
Garden Grove, CA 92843",https://locations.99only.com/ca/gardengrove/discount-store-5.html,-117.9216506,33.7733897,Garden Grove
Gardena,(310) 354-9991,"15505 S. Normandie Ave
Gardena, CA 90247",https://locations.99only.com/ca/gardena/discount-store-199.html,-118.3006263,33.8898509,Gardena
Gilroy,(408) 848-4502,"260 East 10th St
Gilroy, CA 95020",https://locations.99only.com/ca/gilroy/discount-store-224.html,-121.5619227,37.0001673,Gilroy
Glendale,(818) 547-9995,"6401 San Fernando Rd
Glendale, CA 91201",https://locations.99only.com/ca/glendale/discount-store-54.html,-118.2887022,34.1659314,Glendale
Glendora - Barranca,(626) 332-5083,"1788 South Barranca Ave
Glendora, CA 91740",https://locations.99only.com/ca/glendora/discount-store-420.html,-117.88059,34.107246,Glendora
Granada Hill,(818) 368-1799,"17040 Chatsworth St
Granada Hills, CA 91344",https://locations.99only.com/ca/granadahills/discount-store-55.html,-118.5038219,34.2639928,Granada Hills
Hacienda Heights,(626) 855-1699,"1120 Hacienda Blvd
Hacienda Heights, CA 91745",https://locations.99only.com/ca/haciendaheights/discount-store-193.html,-117.9619338,34.0098399,Hacienda Heights
Hanford,(559) 587-9742,"550 N. 11th Ave
Hanford, CA 93230",https://locations.99only.com/ca/hanford/discount-store-290.html,-119.6569786,36.3297834,Hanford
Harbor City,(310) 539-9099,"955 W. Sepulveda Blvd
Harbor City, CA 90502",https://locations.99only.com/ca/harborcity/discount-store-48.html,-118.2913055,33.8117539,Harbor City
Hawaiian Gardens,(562) 420-9900,"12125 Carson Blvd
Hawaiian Gardens, CA 90716",https://locations.99only.com/ca/hawaiiangardens/discount-store-46.html,-118.0733103,33.8319694,Hawaiian Gardens
Hawthorne - 118th Street,(310) 679-6994,"11811 Hawthorne Blvd
Hawthorne, CA 90250",https://locations.99only.com/ca/hawthorne/discount-store-19.html,-118.3537639,33.9270991,Hawthorne
Hayward,(510) 276-9960,"20882 Mission Blvd
Hayward, CA 94541",https://locations.99only.com/ca/hayward/discount-store-217.html,-122.0980352,37.684944,Hayward
Hemet,(951) 765-1074,"3385 W. Florida Ave
Hemet, CA 92545",https://locations.99only.com/ca/hemet/discount-store-108.html,-117.0079599,33.7454323,Hemet
Hesperia - Main Street,(760) 948-4306,"17255 Main St
Hesperia, CA 92345",https://locations.99only.com/ca/hesperia/discount-store-362.html,-117.2871755,34.4182918,Hesperia
Hesperia - Topaz,(760) 244-4409,"14073 Main St., Suite 108
Hesperia, CA 92345",https://locations.99only.com/ca/hesperia/discount-store-281.html,-117.3567816,34.4260584,Hesperia
Huntington Beach - Brookhurst,(714) 593-9939,"19050 Brookhurst St
Huntington Beach, CA 92646",https://locations.99only.com/ca/huntingtonbeach/discount-store-97.html,-117.9529066,33.6858654,Huntington Beach
Huntington Beach - Beach Blvd,(714) 843-5874,"16672 Beach Blvd
Huntington Beach, CA 92647",https://locations.99only.com/ca/huntingtonbeach/discount-store-75.html,-117.9875915,33.7203397,Huntington Beach
Huntington Beach,(714) 379-0902,"15962 Springdale St
Huntington Beach, CA 92649",https://locations.99only.com/ca/huntingtonbeach/discount-store-49.html,-118.0225998,33.7307532,Huntington Beach
Walnut Park,(323) 585-2999,"2566 E. Florence Ave
Huntington Park, CA 90255",https://locations.99only.com/ca/huntingtonpark/discount-store-44.html,-118.2258445,33.9740068,Huntington Park
Huntington Park - Pacific,(323) 588-1559,"6124 Pacific Blvd
Huntington Park, CA 90255",https://locations.99only.com/ca/huntingtonpark/discount-store-33.html,-118.224805,33.9846696,Huntington Park
Inglewood - Crenshaw,(323) 751-1478,"8451 Crenshaw Blvd
Inglewood, CA 90305",https://locations.99only.com/ca/inglewood/discount-store-392.html,-118.3272915,33.9613371,Inglewood
Inglewood - Imperial,(323) 777-2419,"2762 Imperial Hwy
Inglewood, CA 90303",https://locations.99only.com/ca/inglewood/discount-store-364.html,-118.3244133,33.9309083,Inglewood
La Mesa,(619) 697-7599,"7908 El Cajon Blvd
La Mesa, CA 91941",https://locations.99only.com/ca/lamesa/discount-store-150.html,-117.0269048,32.7700679,La Mesa
La Mirada,(562) 946-2918,"14540 E. Leffingwell Rd
La Mirada, CA 90638",https://locations.99only.com/ca/lamirada/discount-store-37.html,-118.0213534,33.9241108,La Mirada
La Puente,(626) 918-6699,"1617 Hacienda Blvd
La Puente, CA 91744",https://locations.99only.com/ca/lapuente/discount-store-56.html,-117.9473251,34.0494561,La Puente
La Quinta,(760) 863-0992,"79840 Hwy. 111
La Quinta, CA 92253",https://locations.99only.com/ca/laquinta/discount-store-119.html,-116.2718944,33.708845,La Quinta
Lake Elsinore,(951) 245-4809,"18286 Collier Ave
Lake Elsinore, CA 92530",https://locations.99only.com/ca/lakeelsinore/discount-store-234.html,-117.33977,33.6923998,Lake Elsinore
Lake Forest - Muirlands,(949) 455-2566,"22631 Lake Forest Dr
Lake Forest, CA 92630",https://locations.99only.com/ca/lakeforest/discount-store-389.html,-117.7110376,33.6347094,Lake Forest
Lake Forest,(949) 597-0999,"23829 El Toro Rd
Lake Forest, CA 92630",https://locations.99only.com/ca/lakeforest/discount-store-198.html,-117.7064554,33.6169432,Lake Forest
Lakewood,(562) 804-7991,"4929 Woodruff Ave
Lakewood, CA 90713",https://locations.99only.com/ca/lakewood/discount-store-58.html,-118.1167655,33.8471723,Lakewood
Lancaster - Avenue J,(661) 945-0989,"1030 E. Avenue J
Lancaster, CA 93535",https://locations.99only.com/ca/lancaster/discount-store-325.html,-118.111355,34.6880241,Lancaster
Lancaster,(661) 942-4929,"44601 Valley Central Way
Lancaster, CA 93536",https://locations.99only.com/ca/lancaster/discount-store-70.html,-118.1736614,34.6924537,Lancaster
Livermore,(925) 454-0217,"1490 Railroad Ave
Livermore, CA 94550",https://locations.99only.com/ca/livermore/discount-store-447.html,-121.7783869,37.6814209,Livermore
Lodi,(209) 339-9103,"300 W. Kettleman Ln
Lodi, CA 95240",https://locations.99only.com/ca/lodi/discount-store-157.html,-121.2773447,38.1141564,Lodi
Lomita,(310) 257-8017,"2159-2167 Pacific Coast Hwy
Lomita, CA 90717",https://locations.99only.com/ca/lomita/discount-store-311.html,-118.3188894,33.7902843,Lomita
Lompoc,(805) 740-1998,"1309 N. H St
Lompoc, CA 93436",https://locations.99only.com/ca/lompoc/discount-store-139.html,-120.4592677,34.659016,Lompoc
Long Beach - Willow,(562) 424-1247,"1851 Willow St
Long Beach, CA 90755",https://locations.99only.com/ca/longbeach/discount-store-355.html,-118.1690426,33.8051803,Long Beach
Long Beach - 20th Street,(562) 591-0802,"2012 Long Beach Blvd
Long Beach, CA 90806",https://locations.99only.com/ca/longbeach/discount-store-251.html,-118.1886032,33.7943944,Long Beach
Long Beach - Orange Street,(562) 988-9167,"1190 E. Carson Street
Long Beach, CA 90806",https://locations.99only.com/ca/longbeach/discount-store-173.html,-118.1770865,33.8317687,Long Beach
Crenshaw,(323) 731-1915,"3060 Crenshaw Blvd
Los Angeles, CA 90016",https://locations.99only.com/ca/losangeles/discount-store-394.html,-118.3347939,34.0259197,Los Angeles
Ladera Heights,(310) 258-9490,"6921 La Tijera Blvd
Los Angeles, CA 90045",https://locations.99only.com/ca/losangeles/discount-store-375.html,-118.3742313,33.9760305,Los Angeles
West LA - Pico,(310) 477-4195,"11040 W Pico Blvd
Los Angeles, CA 90064",https://locations.99only.com/ca/losangeles/discount-store-361.html,-118.4333762,34.0373645,Los Angeles
Highland Park,(323) 256-5599,"6235 York Blvd
Los Angeles, CA 90042",https://locations.99only.com/ca/losangeles/discount-store-125.html,-118.1827535,34.1152155,Los Angeles
La Brea,(323) 466-1075,"852 N. La Brea Ave
Los Angeles, CA 90038",https://locations.99only.com/ca/losangeles/discount-store-84.html,-118.3437293,34.0868782,Los Angeles
Silverlake,(323) 664-9901,"3600 W. Sunset Blvd
Los Angeles, CA 90026",https://locations.99only.com/ca/losangeles/discount-store-83.html,-118.27736,34.08999,Los Angeles
Sunset,(323) 461-9997,"5270 Sunset Blvd
Los Angeles, CA 90027",https://locations.99only.com/ca/losangeles/discount-store-63.html,-118.3050067,34.0976862,Los Angeles
Los Angeles - Washington,(213) 741-9995,"422 E. Washington Blvd
Los Angeles, CA 90015",https://locations.99only.com/ca/losangeles/discount-store-62.html,-118.2611832,34.0287877,Los Angeles
East LA,(323) 980-0999,"3451 Whittier Blvd
Los Angeles, CA 90023",https://locations.99only.com/ca/losangeles/discount-store-59.html,-118.1990224,34.0272627,Los Angeles
Los Angeles - North Broadway,(323) 226-9999,"2606 North Broadway
Los Angeles, CA 90031",https://locations.99only.com/ca/losangeles/discount-store-51.html,-118.2153355,34.0732892,Los Angeles
Wilshire,(323) 939-9991,"6121 Wilshire Blvd
Los Angeles, CA 90048",https://locations.99only.com/ca/losangeles/discount-store-41.html,-118.3623813,34.0634111,Los Angeles
Fairfax,(323) 936-3972,"601 S. Fairfax Ave
Los Angeles, CA 90036",https://locations.99only.com/ca/losangeles/discount-store-16.html,-118.3616753,34.0646705,Los Angeles
Los Baños - Pacheco,(209) 826-1052,"1209 W Pacheco Blvd
Los Baños, CA 93635",https://locations.99only.com/ca/losbanos/discount-store-441.html,-120.8715159,37.0562804,Los Baños
Lynwood,(310) 631-9995,"10821 Long Beach Blvd.
Lynwood, CA 90262",https://locations.99only.com/ca/lynwood/discount-store-130.html,-118.2136905,33.9346308,Lynwood
Madera,(559) 673-9999,"1333 Country Club Dr
Madera, CA 93638",https://locations.99only.com/ca/madera/discount-store-191.html,-120.0720301,36.9783259,Madera
Maywood,(323) 771-9999,"6161 Atlantic Blvd
Maywood, CA 90270",https://locations.99only.com/ca/maywood/discount-store-14.html,-118.1867752,33.981915,Maywood
Menifee,(951) 679-9646,"26100 Newport Rd
Menifee, CA 92586",https://locations.99only.com/ca/menifee/discount-store-371.html,-117.2047739,33.685735,Menifee
Merced,(209) 385-9912,"1111 Olive Ave
Merced, CA 95348",https://locations.99only.com/ca/merced/discount-store-151.html,-120.4876936,37.3203868,Merced
Modesto - McHenry,(209) 577-2763,"2205 McHenry Ave
Modesto, CA 95350",https://locations.99only.com/ca/modesto/discount-store-313.html,-120.995429,37.6752558,Modesto
Ceres,(209) 531-9909,"1450 E. Hatch Rd
Modesto, CA 95351",https://locations.99only.com/ca/modesto/discount-store-165.html,-120.9709164,37.6079937,Modesto
Montclair,(909) 625-9098,"5200 Moreno St
Montclair, CA 91763",https://locations.99only.com/ca/montclair/discount-store-148.html,-117.6919748,34.0899963,Montclair
Via Campo,(323) 728-0005,"2809 Via Campo
Montebello, CA 90640",https://locations.99only.com/ca/montebello/discount-store-445.html,-118.1279549,34.0314707,Montebello
Montebello,(323) 724-9900,"1521 Beverly Blvd
Montebello, CA 90640",https://locations.99only.com/ca/montebello/discount-store-3.html,-118.1155139,34.018947,Montebello
Moreno Valley - Cottonwood,(951) 656-6190,"22985 Cottonwood Ave
Moreno Valley, CA 92553",https://locations.99only.com/ca/morenovalley/discount-store-412.html,-117.261641,33.9237294,Moreno Valley
Moreno Valley - Ironwood,(951) 924-3839,"23920 Ironwood Ave
Moreno Valley, CA 92557",https://locations.99only.com/ca/morenovalley/discount-store-405.html,-117.2454257,33.9474688,Moreno Valley
Moreno Valley - Day Street,(951) 653-1999,"12530 Day St
Moreno Valley, CA 92553",https://locations.99only.com/ca/morenovalley/discount-store-317.html,-117.2780031,33.9382192,Moreno Valley
Moreno Valley,(951) 485-6499,"24899 Alessandro Blvd
Moreno Valley, CA 92553",https://locations.99only.com/ca/morenovalley/discount-store-86.html,-117.2277432,33.915925,Moreno Valley
Murrieta,(951) 698-9971,"25270 Madison St
Murrieta, CA 92562",https://locations.99only.com/ca/murrieta/discount-store-127.html,-117.1971669,33.554828,Murrieta
National City,(619) 474-6999,"1320 Highland Ave
National City, CA 91950",https://locations.99only.com/ca/nationalcity/discount-store-101.html,-117.0977238,32.6730826,National City
Newhall,(661) 284-1999,"24200 Lyons Ave
Newhall, CA 91321",https://locations.99only.com/ca/newhall/discount-store-60.html,-118.5587326,34.3777469,Newhall
North Hills,(818) 895-7839,"8723 Sepulveda Blvd
North Hills, CA 91343",https://locations.99only.com/ca/northhills/discount-store-227.html,-118.4689832,34.2290839,North Hills
North Hollywood - Laurel Canyon,(818) 765-2071,"6639 Laurel Canyon Bl
North Hollywood, CA 91606",https://locations.99only.com/ca/northhollywood/discount-store-315.html,-118.3974605,34.1913992,North Hollywood
North Hollywood - Victory,(818) 505-9104,"10911 Victory Boulevard
North Hollywood, CA 91506",https://locations.99only.com/ca/northhollywood/discount-store-230.html,-118.36896,34.18721,North Hollywood
North Hollywood,(818) 764-9991,"12711 Sherman Way
North Hollywood, CA 91605",https://locations.99only.com/ca/northhollywood/discount-store-61.html,-118.4098295,34.2023039,North Hollywood
Lankershim,(818) 980-9123,"4304 Lankershim Blvd
North Hollywood, CA 91602",https://locations.99only.com/ca/northhollywood/discount-store-40.html,-118.3644056,34.1485731,North Hollywood
Northridge - Tampa,(818) 773-7243,"8750 Tampa Ave
Northridge, CA 91324",https://locations.99only.com/ca/northridge/discount-store-435.html,-118.5527188,34.2296496,Northridge
Norwalk - NW,(562) 864-1112,"12301 Norwalk Blvd
Norwalk, CA 90650",https://locations.99only.com/ca/norwalk/discount-store-429.html,-118.0739505,33.9197218,Norwalk
Norwalk,(562) 929-9984,"14029 Pioneer Blvd
Norwalk, CA 90650",https://locations.99only.com/ca/norwalk/discount-store-32.html,-118.0834163,33.9035403,Norwalk
Oceanside,(760) 433-9992,"1036 Mission Ave
Oceanside, CA 92054",https://locations.99only.com/ca/oceanside/discount-store-95.html,-117.3753268,33.1997705,Oceanside
Ontario - S. Euclid,,"1714 S. Euclid Ave
Ontario, CA 91762",https://locations.99only.com/ca/ontario/discount-store-448.html,-117.65201,34.0425342,Ontario
Ontario - Grove,(909) 947-6274,"2522 S. Grove Ave
Ontario, CA 91761",https://locations.99only.com/ca/ontario/discount-store-376.html,-117.6286386,34.0276995,Ontario
Ontario,(909) 984-4925,"430 N. Mountain Ave
Ontario, CA 91761",https://locations.99only.com/ca/ontario/discount-store-64.html,-117.6692436,34.067906,Ontario
Orange,(714) 289-9992,"789 South Tustin St
Orange, CA 92866",https://locations.99only.com/ca/orange/discount-store-341.html,-117.8350749,33.7755169,Orange
Oxnard - Rose,(805) 986-4560,"4917 S Rose Ave
Oxnard, CA 93033",https://locations.99only.com/ca/oxnard/discount-store-381.html,-119.1607333,34.1558542,Oxnard
Oxnard - Ventura Blvd,(805) 983-0699,"1855 E. Ventura Blvd
Oxnard, CA 93036",https://locations.99only.com/ca/oxnard/discount-store-118.html,-119.1522743,34.2264501,Oxnard
Palm Desert - Monterey,(760) 328-2719,"34660 Monterey Ave
Palm Desert, CA 92211",https://locations.99only.com/ca/palmdesert/discount-store-338.html,-116.3875733,33.7962578,Palm Desert
Palm Desert - A & B,(760) 341-9499,"72845 A & B Hwy 111
Palm Desert, CA 92260",https://locations.99only.com/ca/palmdesert/discount-store-216.html,-116.3932607,33.7205202,Palm Desert
Palm Springs,(760) 322-0043,"102 S Sunrise Way
Palm Springs, CA 92262",https://locations.99only.com/ca/palmsprings/discount-store-444.html,-116.5273654,33.8225054,Palm Springs
Palmdale - 20th Street,(661) 538-1857,"38360-B 20th St E
Palmdale, CA 93550",https://locations.99only.com/ca/palmdale/discount-store-326.html,-118.0919671,34.579026,Palmdale
Palmdale,(661) 273-9437,"442 West Avenue P
Palmdale, CA 93350",https://locations.99only.com/ca/palmdale/discount-store-109.html,-118.13906,34.59805,Palmdale
Paramount - Downey,(562) 272-6689,"15727 Downey Ave
Paramount, CA 90723",https://locations.99only.com/ca/paramount/discount-store-406.html,-118.1527755,33.8904001,Paramount
Pasadena - Colorado,(626) 356-2499,"1720 E. Colorado Blvd
Pasadena, CA 91106",https://locations.99only.com/ca/pasadena/discount-store-98.html,-118.1151025,34.1456324,Pasadena
Pasadena,(626) 356-0990,"442 N. Los Robles Ave
Pasadena, CA 91101",https://locations.99only.com/ca/pasadena/discount-store-7.html,-118.1404085,34.1534338,Pasadena
Pico Rivera,(562) 692-9992,"9535 Whittier Blvd
Pico Rivera, CA 90660",https://locations.99only.com/ca/picorivera/discount-store-31.html,-118.0746821,33.99783,Pico Rivera
Pinole,(510) 964-9906,"620 San Pablo Ave
Pinole, CA 94564",https://locations.99only.com/ca/pinole/discount-store-275.html,-122.3152692,38.0035999,Pinole
Placentia,(714) 993-6699,"1260 E. Yorba Linda Blvd
Placentia, CA 92870",https://locations.99only.com/ca/placentia/discount-store-122.html,-117.8400246,33.8874163,Placentia
Pomona - Arrow Hwy,(909) 624-9996,"602 East Arrow Hwy
Pomona, CA 91767",https://locations.99only.com/ca/pomona/discount-store-226.html,-117.7386659,34.0895682,Pomona
Pomona,(909) 620-9947,"606 E. Holt Ave
Pomona, CA 91767",https://locations.99only.com/ca/pomona/discount-store-82.html,-117.7390783,34.0618117,Pomona
Port Hueneme,(805) 984-8998,"2551 N. Ventura Rd
Port Hueneme, CA 93041",https://locations.99only.com/ca/porthueneme/discount-store-85.html,-119.1962057,34.1768977,Port Hueneme
Porterville,(559) 789-9912,"825 W. Henderson Ave
Porterville, CA 93257",https://locations.99only.com/ca/porterville/discount-store-162.html,-119.0357186,36.0791738,Porterville
Poway,(858) 679-7490,"12369 Poway Rd
Poway, CA 92064",https://locations.99only.com/ca/poway/discount-store-318.html,-117.0632228,32.9509348,Poway
Ramona,(760) 788-9999,"1326 Main St.
Ramona, CA 92065",https://locations.99only.com/ca/ramona/discount-store-382.html,-116.8739177,33.0385202,Ramona
Rancho Cordova,(916) 858-1499,"2868 Zinfandel Dr
Rancho Cordova, CA 95670",https://locations.99only.com/ca/ranchocordova/discount-store-160.html,-121.2892796,38.594089,Rancho Cordova
Rancho Cucamonga - Foothill,(909) 987-4285,"10848 Foothill Blvd
Rancho Cucamonga, CA 91730",https://locations.99only.com/ca/ranchocucamonga/discount-store-365.html,-117.5682032,34.1078664,Rancho Cucamonga
Rancho Cucamonga,(909) 980-1744,"9640 Baseline Rd
Rancho Cucamonga, CA 91701",https://locations.99only.com/ca/ranchocucamonga/discount-store-110.html,-117.5949356,34.1225466,Rancho Cucamonga
Redding,(530) 222-9999,"2611 Hilltop Dr
Redding, CA 96002",https://locations.99only.com/ca/redding/discount-store-190.html,-122.3575415,40.5697038,Redding
Redlands,(909) 798-4299,"1678 W. Redlands Blvd
Redlands, CA 92373",https://locations.99only.com/ca/redlands/discount-store-181.html,-117.2120547,34.0637032,Redlands
Redondo Beach,(310) 536-9221,"2701 Manhattan Beach Blvd
Redondo Beach, CA 90278",https://locations.99only.com/ca/redondobeach/discount-store-310.html,-118.3624299,33.8885475,Redondo Beach
Reseda,(818) 996-9867,"18215 Sherman Way
Reseda, CA 91335",https://locations.99only.com/ca/reseda/discount-store-47.html,-118.5299114,34.2020416,Reseda
Rialto - Baseline,(909) 421-1909,"212 W. Baseline Rd
Rialto, CA 92376",https://locations.99only.com/ca/rialto/discount-store-236.html,-117.3730776,34.1227842,Rialto
Rialto,(909) 875-9919,"1321 W. Foothill Blvd
Rialto, CA 92376",https://locations.99only.com/ca/rialto/discount-store-123.html,-117.3969914,34.1054926,Rialto
Richmond,(510) 262-0672,"3600 Klose Way
Richmond, CA 94806",https://locations.99only.com/ca/richmond/discount-store-297.html,-122.3179684,37.9825283,Richmond
Riverside - Magnolia / La Sierra,(951) 352-0534,"11160 Magnolia Ave
Riverside, CA 92505",https://locations.99only.com/ca/riverside/discount-store-431.html,-117.4767898,33.9017776,Riverside
Riverside - Van Buren,(951) 359-9990,"6230 Van Buren Blvd
Riverside, CA 92503",https://locations.99only.com/ca/riverside/discount-store-383.html,-117.455547,33.9444618,Riverside
Riverside - Limonite,(951) 681-5199,"8900 Limonite Ave
Riverside, CA 92509",https://locations.99only.com/ca/riverside/discount-store-285.html,-117.4777532,33.9746972,Riverside
Riverside - Magnolia,(951) 343-2293,"9915 Magnolia Ave
Riverside, CA 92503",https://locations.99only.com/ca/riverside/discount-store-134.html,-117.45518,33.9170068,Riverside
Riverside,(951) 248-9170,"3477 Arlington Ave
Riverside, CA 92506",https://locations.99only.com/ca/riverside/discount-store-104.html,-117.3867102,33.9471529,Riverside
Rohnert Park,(707) 588-8936,"415 Rohnert Park Expy
Rohnert Park, CA 94928",https://locations.99only.com/ca/rohnertpark/discount-store-358.html,-122.7191081,38.3465129,Rohnert Park
Roseville - Fairway,(916) 797-9999,"10261 Fairway Dr
Roseville, CA 95678",https://locations.99only.com/ca/roseville/discount-store-385.html,-121.2816807,38.787622,Roseville
Roseville - Douglas,(916) 797-8999,"1617 Douglas Blvd Suite 2
Roseville, CA 95661",https://locations.99only.com/ca/roseville/discount-store-331.html,-121.2642908,38.7454703,Roseville
Rowland Heights,(626) 839-0499,"19033 E. Colima Rd
Rowland Heights, CA 91748",https://locations.99only.com/ca/rowlandheights/discount-store-112.html,-117.8882887,33.9882724,Rowland Heights
Sacramento - Florin,(916) 393-2203,"4440 Florin Rd
Sacramento, CA 95823",https://locations.99only.com/ca/sacramento/discount-store-352.html,-121.4530276,38.4947732,Sacramento
Sacramento - Stockton,(916) 393-1784,"5930 Stockton Blvd
Sacramento, CA 95824",https://locations.99only.com/ca/sacramento/discount-store-237.html,-121.4412433,38.5184594,Sacramento
Sacramento - Folsom,(916) 386-9990,"8387 Folsom Blvd
Sacramento, CA 95826",https://locations.99only.com/ca/sacramento/discount-store-209.html,-121.3953446,38.5488821,Sacramento
Northgate,(916) 564-9954,"2351 Northgate Blvd
Sacramento, CA 95833",https://locations.99only.com/ca/sacramento/discount-store-183.html,-121.4772173,38.6093295,Sacramento
El Camino,(916) 614-9999,"2224 El Camino Ave
Sacramento, CA 95821",https://locations.99only.com/ca/sacramento/discount-store-175.html,-121.4137419,38.6098144,Sacramento
Sacramento - Elkhorn,(916) 344-4999,"4319 Elkhorn Blvd
Sacramento, CA 95842",https://locations.99only.com/ca/sacramento/discount-store-168.html,-121.3625614,38.69561,Sacramento
Salinas,(831) 751-3999,"102 E. Laurel Dr
Salinas, CA 93906",https://locations.99only.com/ca/salinas/discount-store-208.html,-121.6508584,36.6982184,Salinas
San Bernardino - Rio,(909) 425-1912,"2028 E Highland Ave
San Bernardino, CA 92404",https://locations.99only.com/ca/sanbernardino/discount-store-360.html,-117.2426661,34.1360529,San Bernardino
San Bernardino - Waterman,(909) 386-0142,"1003 N. Waterman Ave.
San Bernardino, CA 92410",https://locations.99only.com/ca/sanbernardino/discount-store-356.html,-117.2767049,34.1179555,San Bernardino
San Bernardino,(909) 888-4930,"975-A South E. St
San Bernardino, CA 92408",https://locations.99only.com/ca/sanbernardino/discount-store-68.html,-117.2926861,34.0833877,San Bernardino
San Clemente,(949) 498-9089,"55 Via Pico Plz
San Clemente, CA 92672",https://locations.99only.com/ca/sanclemente/discount-store-186.html,-117.62002,33.4360264,San Clemente
Mira Mesa,(858) 271-8655,"10765 Camino Ruiz Blvd
San Diego, CA 92126",https://locations.99only.com/ca/sandiego/discount-store-369.html,-117.142744,32.9147336,San Diego
San Diego - Market Street,(619) 238-2406,"2611 Market Street
San Diego, CA 92101",https://locations.99only.com/ca/sandiego/discount-store-287.html,-117.1377935,32.7112935,San Diego
San Diego - Marketplace,(619) 263-3090,"265 Marketplace Ave
San Diego, CA 92113",https://locations.99only.com/ca/sandiego/discount-store-212.html,-117.1000473,32.7029596,San Diego
San Diego - University,(619) 229-9279,"5931 University Ave
San Diego, CA 92115",https://locations.99only.com/ca/sandiego/discount-store-144.html,-117.0692488,32.7494904,San Diego
San Diego - Clairemont,(858) 483-3137,"4140 Clairemont Mesa Blvd
San Diego, CA 92117",https://locations.99only.com/ca/sandiego/discount-store-142.html,-117.2022827,32.830411,San Diego
San Diego,(619) 429-8999,"1862 Palm Ave
San Diego, CA 92154",https://locations.99only.com/ca/sandiego/discount-store-73.html,-117.0934743,32.5846273,San Diego
San Dimas,(909) 305-8919,"602 W Arrow Hwy
San Dimas, CA 91773",https://locations.99only.com/ca/sandimas/discount-store-343.html,-117.8189998,34.1035935,San Dimas
San Jose,(408) 971-1501,"1915 W. San Carlos St
San Jose, CA 95128",https://locations.99only.com/ca/sanjose/discount-store-270.html,-121.9292671,37.3237555,San Jose
San Leandro,(510) 351-0999,"699 Lewelling Boulevard
San Leandro, CA 94578",https://locations.99only.com/ca/sanleandro/discount-store-180.html,-122.1351291,37.6878718,San Leandro
San Luis Obispo,(805) 541-1036,"1308 Madonna Rd
San Luis Obispo, CA 93405",https://locations.99only.com/ca/sanluisobispo/discount-store-401.html,-120.6897691,35.2580627,San Luis Obispo
San Marcos,(760) 891-0972,"155 S. Rancho Sante Fe Rd
San Marcos, CA 92078",https://locations.99only.com/ca/sanmarcos/discount-store-307.html,-117.1988015,33.1470846,San Marcos
San Pedro,(310) 547-9999,"938 S. Gaffey St
San Pedro, CA 90731",https://locations.99only.com/ca/sanpedro/discount-store-45.html,-118.2920819,33.7354332,San Pedro
San Ysidro,(619) 690-0999,"121 Louisiana Ave
San Ysidro, CA 92173",https://locations.99only.com/ca/sanysidro/discount-store-99.html,-117.0381238,32.5498475,San Ysidro
Sanger,(559) 875-7026,"2680 Jensen Ave
Sanger, CA 93657",https://locations.99only.com/ca/sanger/discount-store-348.html,-119.5759846,36.7072754,Sanger
Santa Ana - Bristol,(714) 966-1919,"2311 S. Bristol St
Santa Ana, CA 92704",https://locations.99only.com/ca/santaana/discount-store-77.html,-117.8844042,33.7154917,Santa Ana
Santa Ana,(714) 541-7909,"1514 N. Main St
Santa Ana, CA 92701",https://locations.99only.com/ca/santaana/discount-store-39.html,-117.8678641,33.7583434,Santa Ana
Santa Barbara,(805) 965-4299,"424 State St
Santa Barbara, CA 93101",https://locations.99only.com/ca/santabarbara/discount-store-339.html,-119.6946927,34.4166803,Santa Barbara
Santa Fe Springs,(562) 864-4209,"11550 Telegraph Rd
Santa Fe Springs, CA 90670",https://locations.99only.com/ca/santafesprings/discount-store-363.html,-118.087486,33.9471863,Santa Fe Springs
Santa Maria - Broadway,(805) 739-9040,"1627 N. Broadway
Santa Maria, CA 93458",https://locations.99only.com/ca/santamaria/discount-store-351.html,-120.436583,34.968732,Santa Maria
Santa Maria,(805) 614-9193,"312 E. Betteravia Rd
Santa Maria, CA 93454",https://locations.99only.com/ca/santamaria/discount-store-140.html,-120.4321264,34.9207017,Santa Maria
Santa Monica,(310) 449-6939,"2801 Pico Blvd
Santa Monica, CA 90405",https://locations.99only.com/ca/santamonica/discount-store-35.html,-118.4604925,34.024626,Santa Monica
Santee - Mission Gorge,(619) 448-2565,"9751 Mission Gorge Rd
Santee, CA 92071",https://locations.99only.com/ca/santee/discount-store-415.html,-116.9851502,32.8372428,Santee
Simi Valley - Los Angeles Ave,(805) 955-9989,"1293B Los Angeles Ave
Simi Valley, CA 93065",https://locations.99only.com/ca/simivalley/discount-store-214.html,-118.7752754,34.2732522,Simi Valley
Sonora,(209) 694-0156,"740 Mono Way
Sonora, CA 95370",https://locations.99only.com/ca/sonora/discount-store-413.html,-120.3715635,37.974868,Sonora
S. El Monte - Durfee,(626) 575-7175,"2035 Durfee St
South El Monte, CA 91733",https://locations.99only.com/ca/southelmonte/discount-store-403.html,-118.0298762,34.0472292,South El Monte
Stockton - March Lane,(209) 478-2133,"1449 W. March Ln
Stockton, CA 95207",https://locations.99only.com/ca/stockton/discount-store-264.html,-121.3233346,37.9897927,Stockton
Stockton - Hammer Lane,(209) 956-4992,"1120 E. Hammer Ln
Stockton, CA 95210",https://locations.99only.com/ca/stockton/discount-store-177.html,-121.2978613,38.0193696,Stockton
Sun Valley,(818) 771-9316,"8437 Laurel Canyon Blvd
Sun Valley, CA 91352",https://locations.99only.com/ca/sunvalley/discount-store-399.html,-118.3982821,34.224329,Sun Valley
Sylmar - Gladstone,(818) 367-0461,"13237 Gladstone Ave
Sylmar, CA 91342",https://locations.99only.com/ca/sylmar/discount-store-422.html,-118.4297275,34.3114001,Sylmar
Temecula,(951) 296-1999,"40355 Winchester Rd
Temecula, CA 92591",https://locations.99only.com/ca/temecula/discount-store-334.html,-117.1517315,33.5332584,Temecula
Temple City,(626) 285-6888,"9565 Las Tunas Dr
Temple City, CA 91780",https://locations.99only.com/ca/templecity/discount-store-28.html,-118.0616297,34.1068232,Temple City
Thousand Oaks,(805) 492-4499,"950 E. Avenida de los Arboles
Thousand Oaks, CA 91360",https://locations.99only.com/ca/thousandoaks/discount-store-359.html,-118.8615986,34.2151787,Thousand Oaks
Torrance - 182nd Street,(310) 515-7629,"1820 W. 182nd St
Torrance, CA 90504",https://locations.99only.com/ca/torrance/discount-store-266.html,-118.3100422,33.8645752,Torrance
South Bay,(310) 793-6911,"5130 190th St
Torrance, CA 90504",https://locations.99only.com/ca/torrance/discount-store-65.html,-118.3669202,33.8581561,Torrance
Tracy - Grant Line,(209) 830-4324,"2888 W Grant Line Rd
Tracy, CA 95304",https://locations.99only.com/ca/tracy/discount-store-433.html,-121.4695184,37.7523169,Tracy
Tracy,(209) 839-9619,"1320 W. 11th St
Tracy, CA 95376",https://locations.99only.com/ca/tracy/discount-store-185.html,-121.4422254,37.7391972,Tracy
Tulare,(559) 686-9990,"1035 E. Prosperity Ave
Tulare, CA 93274",https://locations.99only.com/ca/tulare/discount-store-279.html,-119.3316592,36.2242205,Tulare
Turlock,(209) 632-6996,"701 N. Golden State Blvd
Turlock, CA 95380",https://locations.99only.com/ca/turlock/discount-store-188.html,-120.8515991,37.4992757,Turlock
Tustin - Red Hill,(714) 368-7401,"14551 Red Hill Ave
Tustin, CA 92780",https://locations.99only.com/ca/tustin/discount-store-425.html,-117.8226253,33.7276803,Tustin
Tustin,(714) 368-7428,"13721 Newport Ave
Tustin, CA 92780",https://locations.99only.com/ca/tustin/discount-store-384.html,-117.8203528,33.7418548,Tustin
Upland,(909) 946-5999,"229 E. Foothill Blvd
Upland, CA 91786",https://locations.99only.com/ca/upland/discount-store-107.html,-117.6481019,34.10706,Upland
Vacaville,(707) 446-9994,"551 Peabody Rd
Vacaville, CA 95687",https://locations.99only.com/ca/vacaville/discount-store-192.html,-121.9722906,38.3455222,Vacaville
Valencia,(661) 222-7660,"23300 Valencia Blvd
Valencia, CA 91355",https://locations.99only.com/ca/valencia/discount-store-330.html,-118.5452347,34.421452,Valencia
Vallejo - Sonoma,(707) 553-1083,"3684 Sonoma Blvd
Vallejo, CA 94590",https://locations.99only.com/ca/vallejo/discount-store-410.html,-122.2538234,38.1248284,Vallejo
Vallejo,(707) 553-8509,"42 Springstowne Center
Vallejo, CA 94591",https://locations.99only.com/ca/vallejo/discount-store-232.html,-122.2158396,38.1044467,Vallejo
Van Nuys,(818) 901-6590,"16107 Victory Blvd
Van Nuys, CA 91406",https://locations.99only.com/ca/vannuys/discount-store-450.html,-118.4850363,34.1870079,Van Nuys
Van Nuys,(818) 904-9996,"6755 Van Nuys Blvd
Van Nuys, CA 91405",https://locations.99only.com/ca/vannuys/discount-store-81.html,-118.4489349,34.1937993,Van Nuys
Ventura - Victoria,(805) 642-4071,"1425 South Victoria Ave
Ventura, CA 93003",https://locations.99only.com/ca/ventura/discount-store-213.html,-119.2132275,34.2616976,Ventura
Ventura,(805) 641-3999,"2709 E. Main St
Ventura, CA 93003",https://locations.99only.com/ca/ventura/discount-store-124.html,-119.2601473,34.2743125,Ventura
Victorville - Amargosa,(760) 243-9616,"12480 Amargosa Rd
Victorville, CA 92392",https://locations.99only.com/ca/victorville/discount-store-137.html,-117.3430092,34.4779465,Victorville
Victorville,(760) 962-9993,"14670 Seventh St
Victorville, CA 92395",https://locations.99only.com/ca/victorville/discount-store-93.html,-117.3127067,34.5182613,Victorville
Visalia,(559) 627-1699,"2701 S. Mooney Blvd
Visalia, CA 93277",https://locations.99only.com/ca/visalia/discount-store-155.html,-119.3153242,36.306585,Visalia
Vista,(760) 414-9749,"705 E. Vista Way
Vista, CA 92084",https://locations.99only.com/ca/vista/discount-store-244.html,-117.2353684,33.2070565,Vista
Wasco - Hwy 46,(661) 758-2040,"1304 Hwy 46
Wasco, CA 93280",https://locations.99only.com/ca/wasco/discount-store-402.html,-119.3416308,35.6023111,Wasco
West Covina - Amar,(626) 810-1569,"1516 Amar Rd
West Covina, CA 91792",https://locations.99only.com/ca/westcovina/discount-store-428.html,-117.9141443,34.0294197,West Covina
Whittier,(562) 947-9759,"15345 Whittier Blvd
Whittier, CA 90603",https://locations.99only.com/ca/whittier/discount-store-76.html,-117.9987547,33.946775,Whittier
Wilmington,(310) 952-9900,"401 W Anaheim St
Wilmington, CA 90744",https://locations.99only.com/ca/wilmington/discount-store-283.html,-118.2673385,33.7800475,Wilmington
Woodland Hills,(818) 999-5979,"19836 Ventura Blvd
Woodland Hills, CA 91364",https://locations.99only.com/ca/woodlandhills/discount-store-87.html,-118.5642234,34.1715144,Woodland Hills
Yuba City,(530) 673-3869,"830 Colusa Ave
Yuba City, CA 95991",https://locations.99only.com/ca/yubacity/discount-store-319.html,-121.6281654,39.1411102,Yuba City
Yucaipa,(909) 797-9089,"12013 5th St
Yucaipa, CA 92399",https://locations.99only.com/ca/yucaipa/discount-store-179.html,-117.0555029,34.0350724,Yucaipa
Yucca Valley - 29 Palms,(760) 365-8625,"57980 29 Palms Hwy
Yucca Valley, CA 92284",https://locations.99only.com/ca/yuccavalley/discount-store-390.html,-116.3996545,34.1294073,Yucca Valley
Apache Junction,(480) 983-9915,"3003 W. Apache Trail
Apache Junction, AZ 85120",https://locations.99only.com/az/apachejunction/discount-store-219.html,-111.5782244,33.413779,Apache Junction
Bullhead City - Hwy 46,(928) 704-0099,"3699 Highway 95
Bullhead City, AZ 86442",https://locations.99only.com/az/bullheadcity/discount-store-430.html,-114.5918998,35.0528237,Bullhead City
Casa Grande,(520) 876-9281,"1683 E. Florence Blvd
Casa Grande, AZ 85122",https://locations.99only.com/az/casagrande/discount-store-387.html,-111.7153996,32.8782385,Casa Grande
Chandler,(480) 899-8399,"1996 N. Alma School Rd
Chandler, AZ 85224",https://locations.99only.com/az/chandler/discount-store-167.html,-111.8608643,33.334679,Chandler
Douglas - 5th St,(520) 364-6454,"204 5th St
Suite D
Douglas, AZ 85607",https://locations.99only.com/az/douglas/discount-store-449.html,-109.5587434,31.3390485,Douglas
Gilbert,(480) 545-7999,"750 N. Gilbert Rd
Gilbert, AZ 85233",https://locations.99only.com/az/gilbert/discount-store-306.html,-111.7925806,33.3636775,Gilbert
Phoenix - 43rd Avenue,(602) 942-0598,"4240 W. Bell Rd
Glendale, AZ 85308",https://locations.99only.com/az/glendale/discount-store-322.html,-112.1505305,33.6408339,Glendale
Glendale - 67th Avenue,(623) 572-5299,"20165 N. 67th Ave
Glendale, AZ 85308",https://locations.99only.com/az/glendale/discount-store-207.html,-112.2016522,33.6649594,Glendale
Glendale (AZ),(623) 930-1112,"5340 W. Glendale Ave
Glendale, AZ 85301",https://locations.99only.com/az/glendale/discount-store-178.html,-112.1741811,33.5393014,Glendale
Goodyear,(623) 882-3399,"13540 W. Van Buren St
Goodyear, AZ 85338",https://locations.99only.com/az/goodyear/discount-store-231.html,-112.3508209,33.450992,Goodyear
Kingman,(928) 718-7199,"3140 Stockton Hill Rd.
Kingman, AZ 86401",https://locations.99only.com/az/kingman/discount-store-368.html,-114.0340271,35.2152166,Kingman
Lake Havasu City,(928) 505-3099,"1795 Kiowa Blvd
Lake Havasu, AZ 86403",https://locations.99only.com/az/lakehavasu/discount-store-314.html,-114.3515065,34.5033378,Lake Havasu
Laveen,(602) 237-7855,"3610 W. Baseline Rd
Laveen, AZ 85339",https://locations.99only.com/az/laveen/discount-store-373.html,-112.136408,33.3791032,Laveen
Maricopa,(520) 568-0079,"44515 W. Edison Rd
Maricopa, AZ 85138",https://locations.99only.com/az/maricopa/discount-store-367.html,-112.0464261,33.064366,Maricopa
Mesa - Gilbert,(480) 632-5733,"1045 S. Gilbert Rd
Mesa, AZ 85204",https://locations.99only.com/az/mesa/discount-store-426.html,-111.786898,33.3960107,Mesa
Mesa - Stapley,(480) 964-1494,"2009 N Stapley Dr
Mesa, AZ 85203",https://locations.99only.com/az/mesa/discount-store-419.html,-111.8038526,33.4521072,Mesa
Mesa - Power,(480) 985-1199,"2070 S. Power Rd
Mesa, AZ 85208",https://locations.99only.com/az/mesa/discount-store-324.html,-111.6879976,33.3782064,Mesa
Mesa - Main,(480) 396-2499,"4433 E. Main St
Mesa, AZ 85205",https://locations.99only.com/az/mesa/discount-store-163.html,-111.7351861,33.4141798,Mesa
Mesa - Country Club,(480) 827-0909,"1120 S. Country Club Dr
Mesa, AZ 85210",https://locations.99only.com/az/mesa/discount-store-145.html,-111.8418819,33.3949085,Mesa
Peoria,(623) 979-0599,"8375 W. Thunderbird Rd
Peoria, AZ 85381",https://locations.99only.com/az/peoria/discount-store-220.html,-112.23924,33.6085347,Peoria
Phoenix - Central Avenue,(602) 276-6993,"6018 S. Central Ave
Phoenix, AZ 85042",https://locations.99only.com/az/phoenix/discount-store-282.html,-112.0747811,33.3916291,Phoenix
Phoenix - 51st Avenue,(623) 846-9919,"5010 W. Indian School Rd
Phoenix, AZ 85031",https://locations.99only.com/az/phoenix/discount-store-225.html,-112.1665875,33.4963304,Phoenix
Phoenix - 12th Street,(602) 997-5999,"7830 N. 12th St
Phoenix, AZ 85020",https://locations.99only.com/az/phoenix/discount-store-223.html,-112.0583493,33.5520185,Phoenix
Phoenix - Tatum,(602) 953-0999,"12805 N. Tatum Blvd
Phoenix, AZ 85032",https://locations.99only.com/az/phoenix/discount-store-203.html,-111.9765435,33.6021495,Phoenix
Phoenix - Thomas,(623) 691-9992,"7620 W. Thomas Rd
Phoenix, AZ 85033",https://locations.99only.com/az/phoenix/discount-store-182.html,-112.2217582,33.4816262,Phoenix
Phoenix - Bell,(602) 996-7999,"2315 E. Bell Rd
Phoenix, AZ 85022",https://locations.99only.com/az/phoenix/discount-store-166.html,-112.0322671,33.6390459,Phoenix
Phoenix - Peoria,(602) 863-9929,"3518 W. Peoria Ave
Phoenix, AZ 85029",https://locations.99only.com/az/phoenix/discount-store-131.html,-112.1354766,33.5833307,Phoenix
Phoenix - Indian School,(602) 279-3499,"1240 Indian School Rd
Phoenix, AZ 85014",https://locations.99only.com/az/phoenix/discount-store-116.html,-112.0549959,33.4950599,Phoenix
Sahuarita,(520) 648-0276,"750 W. Calle Arroyo Sur
Sahuarita, AZ 85614",https://locations.99only.com/az/sahuarita/discount-store-243.html,-110.9811204,31.913204,Sahuarita
Scottsdale - Indian Bend,(480) 362-9293,"8950 E. Talking Stick Way
Scottsdale, AZ 85250",https://locations.99only.com/az/scottsdale/discount-store-388.html,-111.8892201,33.5403989,Scottsdale
Scottsdale - Thomas,(480) 946-7999,"7919 E. Thomas Rd.
Scottsdale, AZ 85251",https://locations.99only.com/az/scottsdale/discount-store-164.html,-111.9096963,33.478899,Scottsdale
Surprise,(623) 974-5929,"12801 W. Bell Rd
Surprise, AZ 85374",https://locations.99only.com/az/surprise/discount-store-161.html,-112.3370272,33.6371458,Surprise
Tempe - Southern,(480) 894-5220,"790 E. Southern Ave
Tempe, AZ 85282",https://locations.99only.com/az/tempe/discount-store-133.html,-111.9286812,33.393727,Tempe
Tucson - Oracle,(520) 887-3509,"4144 N. Oracle Rd
Tucson, AZ 85705",https://locations.99only.com/az/tucson/discount-store-312.html,-110.977177,32.282403,Tucson
Tucson - Marana,(520) 579-1699,"4160 W. Ina Rd
Tucson, AZ 85741",https://locations.99only.com/az/tucson/discount-store-222.html,-111.0544265,32.3385163,Tucson
Tucson - Golf Links,(520) 296-8999,"7125 E. Golf Links Rd
Tucson, AZ 85730",https://locations.99only.com/az/tucson/discount-store-206.html,-110.8395525,32.1933855,Tucson
Tucson - Valencia,(520) 889-7999,"1675 W. Valencia Blvd
Tucson, AZ 85746",https://locations.99only.com/az/tucson/discount-store-205.html,-111.0006801,32.1322397,Tucson
Yuma - Fortuna,(928) 305-9999,"11274 S Fortuna Rd
Yuma, AZ 85367",https://locations.99only.com/az/yuma/discount-store-366.html,-114.4451353,32.6679493,Yuma
Yuma - 4th Avenue,(928) 376-0999,"1701 S. 4th Ave
Yuma, AZ 85364",https://locations.99only.com/az/yuma/discount-store-242.html,-114.6235581,32.696118,Yuma
Boulder City,(702) 293-5280,"800 Buchanan Blvd
Boulder City, NV 89005",https://locations.99only.com/nv/bouldercity/discount-store-404.html,-114.8467083,35.972352,Boulder City
Carson City - William,(775) 883-5404,"2080 E. Williman St
Carson City, NV 89701",https://locations.99only.com/nv/carsoncity/discount-store-391.html,-119.7450018,39.1746128,Carson City
Henderson - Marks,(702) 898-9928,"520 Marks St. #C
Henderson, NV 89014",https://locations.99only.com/nv/henderson/discount-store-171.html,-115.0355707,36.0599995,Henderson
Henderson - Boulder,(702) 558-9919,"716 S Boulder Hwy
Henderson, NV 89015",https://locations.99only.com/nv/henderson/discount-store-344.html,-114.9690215,36.0309305,Henderson
Las Vegas - Eastern,(702) 617-1989,"9230 S. Eastern Ave
Henderson, NV 89052",https://locations.99only.com/nv/henderson/discount-store-147.html,-115.1169315,36.0216502,Henderson
Las Vegas - Eastern / Warm Springs,(702) 260-0223,"7380 S. Eastern Ave
Las Vegas, NV 89123",https://locations.99only.com/nv/lasvegas/discount-store-421.html,-115.1167462,36.055626,Las Vegas
Las Vegas - Cheyenne,(702) 643-2044,"3258 N. Las Vegas Blvd
Las Vegas, NV 89115",https://locations.99only.com/nv/lasvegas/discount-store-386.html,-115.0930257,36.2162334,Las Vegas
Las Vegas - Blue Diamond,(702) 451-0399,"3835 Blue Diamond Rd
Las Vegas, NV 89139",https://locations.99only.com/nv/lasvegas/discount-store-374.html,-115.1909852,36.0384333,Las Vegas
Las Vegas - Rancho,(702) 456-1132,"3141 N. Rancho Dr
Las Vegas, NV 89130",https://locations.99only.com/nv/lasvegas/discount-store-333.html,-115.2133427,36.216137,Las Vegas
Las Vegas - Ocotillo,(702) 736-9916,"2419 E. Tropicana
Las Vegas, NV 89121",https://locations.99only.com/nv/lasvegas/discount-store-294.html,-115.1182634,36.0987103,Las Vegas
Las Vegas - Beltway,(702) 876-6699,"4920 S. Fort Apache Rd
Las Vegas, NV 89148",https://locations.99only.com/nv/lasvegas/discount-store-211.html,-115.2958896,36.0992136,Las Vegas
Las Vegas - Decatur,(702) 259-9949,"1200 S. Decatur Blvd
Las Vegas, NV 89102",https://locations.99only.com/nv/lasvegas/discount-store-195.html,-115.2072944,36.1573953,Las Vegas
Las Vegas - Lake Mead,(702) 869-3299,"7470 W. Lakemead Blvd
Las Vegas, NV 89128",https://locations.99only.com/nv/lasvegas/discount-store-159.html,-115.2569943,36.1974586,Las Vegas
Las Vegas - Charleston,(702) 382-9946,"1155 E. Charleston Blvd
Las Vegas, NV 89104",https://locations.99only.com/nv/lasvegas/discount-store-143.html,-115.1376854,36.1595051,Las Vegas
Las Vegas - Tropicana,(702) 456-9949,"4910 Tropicana Ave
Las Vegas, NV 89121",https://locations.99only.com/nv/lasvegas/discount-store-132.html,-115.0656895,36.1010066,Las Vegas
Las Vegas - Spring Mountain,(702) 368-2499,"7239 Spring Mountain Rd.
Las Vegas, NV 89117",https://locations.99only.com/nv/lasvegas/discount-store-120.html,-115.2497704,36.1253256,Las Vegas
Las Vegas - Nellis,(702) 459-1599,"45 North Nellis Blvd
Las Vegas, NV 89110",https://locations.99only.com/nv/lasvegas/discount-store-105.html,-115.0636512,36.1606265,Las Vegas
Las Vegas - Flamingo,(702) 794-4999,"1325 E. Flamingo Rd
Las Vegas, NV 89119",https://locations.99only.com/nv/lasvegas/discount-store-94.html,-115.1361104,36.1139553,Las Vegas
Las Vegas - Craig,(702) 642-8299,"1435 W. Craig Rd., Ste 3
North Las Vegas, NV 89032",https://locations.99only.com/nv/northlasvegas/discount-store-117.html,-115.1607472,36.2378222,North Las Vegas
Reno,(775) 825-2437,"5695 S. Virginia St
Reno, NV 89502",https://locations.99only.com/nv/reno/discount-store-346.html,-119.7883369,39.4735054,Reno
Sparks,(775) 331-3890,"580 E. Prater Way
Sparks, NV 89431",https://locations.99only.com/nv/sparks/discount-store-349.html,-119.7363603,39.5430136,Sparks
Arlington,(817) 801-1391,"908 E. Pioneer Pkwy
Arlington, TX 76010",https://locations.99only.com/tx/arlington/discount-store-2885.html,-97.0964924,32.7069288,Arlington
Colleyville,(817) 427-3999,"3901 Colleyville Blvd
Colleyville, TX 76034",https://locations.99only.com/tx/colleyville/discount-store-2818.html,-97.171029,32.8668879,Colleyville
Conroe,(936) 494-3999,"1420 Loop 336
Conroe, TX 77304",https://locations.99only.com/tx/conroe/discount-store-2831.html,-95.4823724,30.3340028,Conroe
Dallas - Bruton,(214) 388-5858,"9009 Bruton Rd
Dallas, TX 75217",https://locations.99only.com/tx/dallas/discount-store-2847.html,-96.6662969,32.7491775,Dallas
Dallas - Live Oak,(214) 370-8796,"4500 Live Oak St
Dallas, TX 75204",https://locations.99only.com/tx/dallas/discount-store-2845.html,-96.7755859,32.7991208,Dallas
Dallas - Frankford,(214) 483-3992,"3632 Frankford Rd
Dallas, TX 75287",https://locations.99only.com/tx/dallas/discount-store-2840.html,-96.8542551,32.9956878,Dallas
Dallas - Preston,(972) 386-5999,"13444 Preston Rd
Dallas, TX 75240",https://locations.99only.com/tx/dallas/discount-store-2837.html,-96.8025304,32.9313022,Dallas
Duncanville,(972) 283-6088,"410 E.Camp Wisdom Rd
Duncanville, TX 75116",https://locations.99only.com/tx/duncanville/discount-store-2879.html,-96.902027,32.661428,Duncanville
El Paso,(915) 533-8143,"1000 S. Stanton Street
El Paso, TX 79901",https://locations.99only.com/tx/elpaso/discount-store-2886.html,-106.4828291,31.7499518,El Paso
Fort Worth - Alta Mere,(817) 735-8924,"455 Sherry Ln
Fort Worth, TX 76114",https://locations.99only.com/tx/fortworth/discount-store-2882.html,-97.428418,32.7520975,Fort Worth
Fort Worth,(817) 569-9966,"6732 Camp Bowie Blvd
Fort Worth, TX 76116",https://locations.99only.com/tx/fortworth/discount-store-2823.html,-97.4338275,32.722308,Fort Worth
Garland - Buckingham,(972) 496-6999,"1445 West Buckingham Road
Garland, TX 75040",https://locations.99only.com/tx/garland/discount-store-2822.html,-96.6498884,32.9317057,Garland
Garland - Centerville,(972) 682-9991,"950 W. Centerville Rd
Garland, TX 75041",https://locations.99only.com/tx/garland/discount-store-2821.html,-96.643602,32.8585714,Garland
Harlingen,(956) 412-9992,"701 N. 13th St
Harlingen, TX 78550",https://locations.99only.com/tx/harlingen/discount-store-2857.html,-97.6840756,26.199427,Harlingen
Houston - Stella Link,(713) 665-0137,"9333 Stella Link Rd
Houston, TX 77025",https://locations.99only.com/tx/houston/discount-store-2883.html,-95.4392094,29.6805473,Houston
Houston - Greens,(281) 872-7714,"251 W Greens Rd
Houston, TX 77067",https://locations.99only.com/tx/houston/discount-store-2875.html,-95.4215699,29.9479219,Houston
Houston - Tidwell,(713) 692-9996,"5550 N. Fwy
Houston, TX 77076",https://locations.99only.com/tx/houston/discount-store-2874.html,-95.3927726,29.8480935,Houston
Houston - FM 1960,(281) 895-8599,"4849 FM1960 W
Houston, TX 77069",https://locations.99only.com/tx/houston/discount-store-2872.html,-95.5036449,29.9841328,Houston
Houston - Bellaire,(713) 665-5990,"5800 Bellaire Suite 1-101
Houston, TX 77081",https://locations.99only.com/tx/houston/discount-store-2860.html,-95.4839459,29.7062061,Houston
Houston - Lawndale,(713) 921-9992,"7061 Lawndale St
Houston, TX 77023",https://locations.99only.com/tx/houston/discount-store-2852.html,-95.2957943,29.7182918,Houston
Houston - Hobby,(713) 649-9993,"8330 Broadway St
Houston, TX 77061",https://locations.99only.com/tx/houston/discount-store-2850.html,-95.2779809,29.6708081,Houston
Houston - Little York,(713) 691-8001,"10702 Easttex Fwy
Houston, TX 77093",https://locations.99only.com/tx/houston/discount-store-2843.html,-95.3273248,29.8680007,Houston
Houston - Chimney Rock,(713) 721-4998,"11320 Chimney Rock Rd
Houston, TX 77035",https://locations.99only.com/tx/houston/discount-store-2836.html,-95.4780269,29.657472,Houston
Houston - Westheimer/Hwy 6,(281) 497-9909,"14310 Westheimer Rd
Houston, TX 77077",https://locations.99only.com/tx/houston/discount-store-2835.html,-95.6411278,29.736546,Houston
Houston - Almeda Genoa,(713) 941-9099,"10220 Almeda Genoa Road
Houston, TX 77034",https://locations.99only.com/tx/houston/discount-store-2830.html,-95.2324589,29.6267414,Houston
Houston - Gessner,(713) 776-2999,"8700 S. Gessner, #100
Houston, TX 77074",https://locations.99only.com/tx/houston/discount-store-2816.html,-95.5296598,29.685835,Houston
Houston - Bissonnet,(832) 328-0099,"11873 Bissonnet St
Houston, TX 77099",https://locations.99only.com/tx/houston/discount-store-2814.html,-95.5860573,29.6741349,Houston
Houston - Bammel,(281) 260-9992,"13749 State Hwy 249
Houston, TX 77086",https://locations.99only.com/tx/houston/discount-store-2813.html,-95.4957244,29.9195,Houston
Houston - Wallisville,(281) 458-9199,"5809 E. Sam Houston Pkwy
Houston, TX 77049",https://locations.99only.com/tx/houston/discount-store-2810.html,-95.16641,29.81008,Houston
Houston - Jones,(281) 517-0492,"10787 Jones Rd
Houston, TX 77065",https://locations.99only.com/tx/houston/discount-store-2809.html,-95.5864676,29.9306017,Houston
Houston - Hwy 6/Keith,(281) 859-9599,"4980 N. Highway 6
Houston, TX 77084",https://locations.99only.com/tx/houston/discount-store-2804.html,-95.6445628,29.8497982,Houston
Houston - Westheimer,(832) 242-5099,"7639 Westheimer
Houston, TX 77063",https://locations.99only.com/tx/houston/discount-store-2802.html,-95.5039196,29.7363451,Houston
Humble - FM 1960,(281) 446-9901,"216 FM 1960
Humble, TX 77338",https://locations.99only.com/tx/humble/discount-store-2881.html,-95.2657502,30.0027296,Humble
Houston - Atascocita,(281) 812-9199,"7130 FM 1960
Humble, TX 77346",https://locations.99only.com/tx/humble/discount-store-2806.html,-95.1696928,29.9974294,Humble
Katy - Fry,(281) 599-0970,"3111 N. Fry Rd
Katy, TX 77449",https://locations.99only.com/tx/katy/discount-store-2877.html,-95.7210974,29.8168612,Katy
Katy - Mason,(281) 392-2989,"21961 Katy Fwy
Katy, TX 77450",https://locations.99only.com/tx/katy/discount-store-2803.html,-95.7531051,29.7816724,Katy
McAllen,(956) 664-9991,"2246 W. Nolana Ave
McAllen, TX 78504",https://locations.99only.com/tx/mcallen/discount-store-2878.html,-98.2386877,26.2418822,McAllen
Mesquite,(972) 681-1517,"3330 N. Galloway Ave
Mesquite, TX 75150",https://locations.99only.com/tx/mesquite/discount-store-2876.html,-96.6090008,32.8118397,Mesquite
Pasadena (TX),(281) 487-3399,"4100 Fairmont Pkwy
Pasadena, TX 77504",https://locations.99only.com/tx/pasadena/discount-store-2815.html,-95.1818248,29.6497639,Pasadena
Rosenberg,(832) 595-1999,"2516 Avenue H
Rosenberg, TX 77471",https://locations.99only.com/tx/rosenberg/discount-store-2817.html,-95.8005312,29.5576739,Rosenberg
San Antonio - Callaghan,(210) 431-9928,"4350 Callaghan Rd
San Antonio, TX 78228",https://locations.99only.com/tx/sanantonio/discount-store-2859.html,-98.6011286,29.467531,San Antonio
San Antonio - Dellcrest,(210) 337-3708,"1864 S. WW White Rd
San Antonio, TX 78220",https://locations.99only.com/tx/sanantonio/discount-store-2855.html,-98.4041595,29.3997877,San Antonio
San Antonio - Basse West,(210) 525-9499,"3025 West Ave
San Antonio, TX 78201",https://locations.99only.com/tx/sanantonio/discount-store-2849.html,-98.5268744,29.4880414,San Antonio
San Antonio - Walzem,(210) 637-1276,"5464 Walzem Rd, Suite 3
San Antonio, TX 78218",https://locations.99only.com/tx/sanantonio/discount-store-2848.html,-98.3833912,29.5086978,San Antonio
San Antonio - Thousand Oaks Drive,(210) 403-0006,"2942 Thousand Oaks Dr
San Antonio, TX 78247",https://locations.99only.com/tx/sanantonio/discount-store-2839.html,-98.4402716,29.5752471,San Antonio
Waco,(254) 399-6933,"5912 Bosque Blvd, Suite 323
Waco, TX 76710",https://locations.99only.com/tx/waco/discount-store-2880.html,-97.1961597,31.5297336,Waco